start=new Date('2023-05-28T00:00:00.000Z').valueOf();
sats=[{"DECAY_DATE":null,"MEAN_MOTION_DDOT":"0.0000000000000","BSTAR":"0.00003565500000","PERIAPSIS":"353.710","OBJECT_ID":"2023-065X","COUNTRY_CODE":"US","TIME_SYSTEM":"UTC","ARG_OF_PERICENTER":"264.0072","PERIOD":"91.640","GP_ID":"232638179","OBJECT_TYPE":"PAYLOAD","CLASSIFICATION_TYPE":"U","EPHEMERIS_TYPE":"0","REV_AT_EPOCH":"336","MEAN_ANOMALY":"96.0575","APOAPSIS":"356.313","MEAN_MOTION_DOT":"0.00004226","LAUNCH_DATE":"2023-05-14","ELEMENT_SET_NO":"999","INCLINATION":"43.0010","RA_OF_ASC_NODE":"1.8422","TLE_LINE1":"1 56524U 23065X   23147.87494945  .00004226  00000-0  35655-4 0  9997","CENTER_NAME":"EARTH","ECCENTRICITY":"0.00019330","OBJECT_NAME":"STARLINK-6323","REF_FRAME":"TEME","MEAN_MOTION":"15.71359870","FILE":"3918755","RCS_SIZE":"LARGE","MEAN_ELEMENT_THEORY":"SGP4","EPOCH":"2023-05-27T20:59:55.632480","SEMIMAJOR_AXIS":"6733.147","NORAD_CAT_ID":"56524","TLE_LINE2":"2 56524  43.0010   1.8422 0001933 264.0072  96.0575 15.71359870  3366","SITE":"AFETR"},{"RCS_SIZE":"LARGE","TLE_LINE1":"1 56525U 23065Y   23147.87442532  .00006714  00000-0  54597-4 0  9993","CENTER_NAME":"EARTH","ECCENTRICITY":"0.00021130","OBJECT_NAME":"STARLINK-6329","REF_FRAME":"TEME","MEAN_MOTION":"15.71359108","FILE":"3918755","SITE":"AFETR","MEAN_ELEMENT_THEORY":"SGP4","EPOCH":"2023-05-27T20:59:10.347648","SEMIMAJOR_AXIS":"6733.149","NORAD_CAT_ID":"56525","TLE_LINE2":"2 56525  43.0012   1.8388 0002113 268.3052  91.7574 15.71359108  3361","COUNTRY_CODE":"US","TIME_SYSTEM":"UTC","ARG_OF_PERICENTER":"268.3052","PERIOD":"91.640","GP_ID":"232638304","DECAY_DATE":null,"MEAN_MOTION_DDOT":"0.0000000000000","BSTAR":"0.00005459700000","PERIAPSIS":"353.591","OBJECT_ID":"2023-065Y","REV_AT_EPOCH":"336","MEAN_ANOMALY":"91.7574","APOAPSIS":"356.436","ELEMENT_SET_NO":"999","LAUNCH_DATE":"2023-05-14","MEAN_MOTION_DOT":"0.00006714","RA_OF_ASC_NODE":"1.8388","INCLINATION":"43.0012","OBJECT_TYPE":"PAYLOAD","CLASSIFICATION_TYPE":"U","EPHEMERIS_TYPE":"0"},{"OBJECT_ID":"2023-065Z","PERIAPSIS":"353.810","BSTAR":"0.00006054500000","MEAN_MOTION_DDOT":"0.0000000000000","DECAY_DATE":null,"GP_ID":"232638490","PERIOD":"91.640","ARG_OF_PERICENTER":"258.2965","TIME_SYSTEM":"UTC","COUNTRY_CODE":"US","EPHEMERIS_TYPE":"0","CLASSIFICATION_TYPE":"U","OBJECT_TYPE":"PAYLOAD","INCLINATION":"43.0010","RA_OF_ASC_NODE":"1.8401","ELEMENT_SET_NO":"999","LAUNCH_DATE":"2023-05-14","MEAN_MOTION_DOT":"0.00007496","APOAPSIS":"356.204","MEAN_ANOMALY":"101.7703","REV_AT_EPOCH":"336","FILE":"3918755","MEAN_MOTION":"15.71361577","REF_FRAME":"TEME","OBJECT_NAME":"STARLINK-6317","ECCENTRICITY":"0.00017780","CENTER_NAME":"EARTH","TLE_LINE1":"1 56526U 23065Z   23147.87474040  .00007496  00000-0  60545-4 0  9991","RCS_SIZE":"LARGE","TLE_LINE2":"2 56526  43.0010   1.8401 0001778 258.2965 101.7703 15.71361577  3362","NORAD_CAT_ID":"56526","SEMIMAJOR_AXIS":"6733.142","EPOCH":"2023-05-27T20:59:37.570560","MEAN_ELEMENT_THEORY":"SGP4","SITE":"AFETR"},{"OBJECT_NAME":"STARLINK-6335","ECCENTRICITY":"0.00016430","CENTER_NAME":"EARTH","TLE_LINE1":"1 56527U 23065AA  23147.87432155  .00014332  00000-0  11253-3 0  9991","MEAN_MOTION":"15.71359819","FILE":"3918755","REF_FRAME":"TEME","RCS_SIZE":"LARGE","MEAN_ELEMENT_THEORY":"SGP4","TLE_LINE2":"2 56527  43.0007   1.8393 0001643 263.8817  96.1863 15.71359819  3368","NORAD_CAT_ID":"56527","SEMIMAJOR_AXIS":"6733.147","EPOCH":"2023-05-27T20:59:01.381920","SITE":"AFETR","BSTAR":"0.00011253000000","MEAN_MOTION_DDOT":"0.0000000000000","DECAY_DATE":null,"OBJECT_ID":"2023-065AA","PERIAPSIS":"353.905","TIME_SYSTEM":"UTC","COUNTRY_CODE":"US","GP_ID":"232638614","PERIOD":"91.640","ARG_OF_PERICENTER":"263.8817","OBJECT_TYPE":"PAYLOAD","EPHEMERIS_TYPE":"0","CLASSIFICATION_TYPE":"U","MEAN_MOTION_DOT":"0.00014332","LAUNCH_DATE":"2023-05-14","ELEMENT_SET_NO":"999","APOAPSIS":"356.118","MEAN_ANOMALY":"96.1863","REV_AT_EPOCH":"336","INCLINATION":"43.0007","RA_OF_ASC_NODE":"1.8393"},{"MEAN_ELEMENT_THEORY":"SGP4","EPOCH":"2023-05-27T20:59:19.461984","SEMIMAJOR_AXIS":"6733.157","NORAD_CAT_ID":"56528","TLE_LINE2":"2 56528  43.0006   1.8395 0001746 261.2734  98.7936 15.71356230  3367","SITE":"AFETR","TLE_LINE1":"1 56528U 23065AB  23147.87453081  .00007445  00000-0  60169-4 0  9991","ECCENTRICITY":"0.00017460","CENTER_NAME":"EARTH","OBJECT_NAME":"STARLINK-6337","REF_FRAME":"TEME","FILE":"3918755","MEAN_MOTION":"15.71356230","RCS_SIZE":"LARGE","OBJECT_TYPE":"PAYLOAD","CLASSIFICATION_TYPE":"U","EPHEMERIS_TYPE":"0","REV_AT_EPOCH":"336","MEAN_ANOMALY":"98.7936","APOAPSIS":"356.198","ELEMENT_SET_NO":"999","LAUNCH_DATE":"2023-05-14","MEAN_MOTION_DOT":"0.00007445","INCLINATION":"43.0006","RA_OF_ASC_NODE":"1.8395","DECAY_DATE":null,"MEAN_MOTION_DDOT":"0.0000000000000","BSTAR":"0.00006016900000","PERIAPSIS":"353.846","OBJECT_ID":"2023-065AB","COUNTRY_CODE":"US","TIME_SYSTEM":"UTC","PERIOD":"91.641","ARG_OF_PERICENTER":"261.2734","GP_ID":"232638428"},{"RCS_SIZE":"LARGE","REF_FRAME":"TEME","MEAN_MOTION":"15.71365531","FILE":"3918755","TLE_LINE1":"1 56529U 23065AC  23147.87390069  .00019651  00000-0  15288-3 0  9991","ECCENTRICITY":"0.00016960","CENTER_NAME":"EARTH","OBJECT_NAME":"STARLINK-6307","SITE":"AFETR","EPOCH":"2023-05-27T20:58:25.019616","SEMIMAJOR_AXIS":"6733.130","NORAD_CAT_ID":"56529","TLE_LINE2":"2 56529  43.0005   1.8359 0001696 267.0288  93.0386 15.71365531  3360","MEAN_ELEMENT_THEORY":"SGP4","PERIOD":"91.640","ARG_OF_PERICENTER":"267.0288","GP_ID":"232638552","COUNTRY_CODE":"US","TIME_SYSTEM":"UTC","PERIAPSIS":"353.853","OBJECT_ID":"2023-065AC","DECAY_DATE":null,"MEAN_MOTION_DDOT":"0.0000000000000","BSTAR":"0.00015288000000","RA_OF_ASC_NODE":"1.8359","INCLINATION":"43.0005","REV_AT_EPOCH":"336","MEAN_ANOMALY":"93.0386","APOAPSIS":"356.137","MEAN_MOTION_DOT":"0.00019651","LAUNCH_DATE":"2023-05-14","ELEMENT_SET_NO":"999","CLASSIFICATION_TYPE":"U","EPHEMERIS_TYPE":"0","OBJECT_TYPE":"PAYLOAD"},{"SEMIMAJOR_AXIS":"6733.134","EPOCH":"2023-05-27T20:58:52.182048","NORAD_CAT_ID":"56530","TLE_LINE2":"2 56530  43.0009   1.8376 0001954 267.9977  92.0667 15.71364402  3363","MEAN_ELEMENT_THEORY":"SGP4","SITE":"AFETR","REF_FRAME":"TEME","MEAN_MOTION":"15.71364402","FILE":"3918755","TLE_LINE1":"1 56530U 23065AD  23147.87421507  .00019031  00000-0  14818-3 0  9995","ECCENTRICITY":"0.00019540","CENTER_NAME":"EARTH","OBJECT_NAME":"STARLINK-6318","RCS_SIZE":"LARGE","CLASSIFICATION_TYPE":"U","EPHEMERIS_TYPE":"0","OBJECT_TYPE":"PAYLOAD","RA_OF_ASC_NODE":"1.8376","INCLINATION":"43.0009","REV_AT_EPOCH":"336","MEAN_ANOMALY":"92.0667","APOAPSIS":"356.314","LAUNCH_DATE":"2023-05-14","ELEMENT_SET_NO":"999","MEAN_MOTION_DOT":"0.00019031","PERIAPSIS":"353.683","OBJECT_ID":"2023-065AD","DECAY_DATE":null,"MEAN_MOTION_DDOT":"0.0000000000000","BSTAR":"0.00014818000000","ARG_OF_PERICENTER":"267.9977","PERIOD":"91.640","GP_ID":"232638242","COUNTRY_CODE":"US","TIME_SYSTEM":"UTC"},{"RCS_SIZE":"LARGE","CENTER_NAME":"EARTH","ECCENTRICITY":"0.00019180","TLE_LINE1":"1 56531U 23065AE  23147.87379513  .00026464  00000-0  20445-3 0  9996","OBJECT_NAME":"STARLINK-6280","REF_FRAME":"TEME","FILE":"3918755","MEAN_MOTION":"15.71373865","SITE":"AFETR","MEAN_ELEMENT_THEORY":"SGP4","NORAD_CAT_ID":"56531","EPOCH":"2023-05-27T20:58:15.899232","SEMIMAJOR_AXIS":"6733.107","TLE_LINE2":"2 56531  43.0006   1.8342 0001918 267.0589  93.0059 15.71373865  3363","COUNTRY_CODE":"US","TIME_SYSTEM":"UTC","GP_ID":"232638366","ARG_OF_PERICENTER":"267.0589","PERIOD":"91.640","MEAN_MOTION_DDOT":"0.0000000000000","DECAY_DATE":null,"BSTAR":"0.00020445000000","PERIAPSIS":"353.680","OBJECT_ID":"2023-065AE","MEAN_ANOMALY":"93.0059","REV_AT_EPOCH":"336","ELEMENT_SET_NO":"999","LAUNCH_DATE":"2023-05-14","MEAN_MOTION_DOT":"0.00026464","APOAPSIS":"356.263","INCLINATION":"43.0006","RA_OF_ASC_NODE":"1.8342","OBJECT_TYPE":"PAYLOAD","CLASSIFICATION_TYPE":"U","EPHEMERIS_TYPE":"0"},{"EPHEMERIS_TYPE":"0","CLASSIFICATION_TYPE":"U","OBJECT_TYPE":"PAYLOAD","RA_OF_ASC_NODE":"1.8358","INCLINATION":"43.0007","MEAN_MOTION_DOT":"0.00022996","LAUNCH_DATE":"2023-05-14","ELEMENT_SET_NO":"999","APOAPSIS":"356.157","MEAN_ANOMALY":"98.8224","REV_AT_EPOCH":"336","OBJECT_ID":"2023-065AF","PERIAPSIS":"353.809","BSTAR":"0.00017821000000","MEAN_MOTION_DDOT":"0.0000000000000","DECAY_DATE":null,"GP_ID":"232638180","PERIOD":"91.640","ARG_OF_PERICENTER":"261.2446","TIME_SYSTEM":"UTC","COUNTRY_CODE":"US","TLE_LINE2":"2 56532  43.0007   1.8358 0001744 261.2446  98.8224 15.71369958  3362","NORAD_CAT_ID":"56532","SEMIMAJOR_AXIS":"6733.118","EPOCH":"2023-05-27T20:58:42.888864","MEAN_ELEMENT_THEORY":"SGP4","SITE":"AFETR","MEAN_MOTION":"15.71369958","FILE":"3918755","REF_FRAME":"TEME","OBJECT_NAME":"STARLINK-6319","CENTER_NAME":"EARTH","ECCENTRICITY":"0.00017440","TLE_LINE1":"1 56532U 23065AF  23147.87410751  .00022996  00000-0  17821-3 0  9997","RCS_SIZE":"LARGE"},{"RA_OF_ASC_NODE":"1.8336","INCLINATION":"43.0007","MEAN_MOTION_DOT":"0.00004365","LAUNCH_DATE":"2023-05-14","ELEMENT_SET_NO":"999","APOAPSIS":"356.289","MEAN_ANOMALY":"92.6773","REV_AT_EPOCH":"336","EPHEMERIS_TYPE":"0","CLASSIFICATION_TYPE":"U","OBJECT_TYPE":"PAYLOAD","GP_ID":"232638305","PERIOD":"91.640","ARG_OF_PERICENTER":"267.3877","TIME_SYSTEM":"UTC","COUNTRY_CODE":"US","OBJECT_ID":"2023-065AG","PERIAPSIS":"353.735","BSTAR":"0.00003670700000","MEAN_MOTION_DDOT":"0.0000000000000","DECAY_DATE":null,"SITE":"AFETR","TLE_LINE2":"2 56533  43.0007   1.8336 0001896 267.3877  92.6773 15.71359694  3369","NORAD_CAT_ID":"56533","EPOCH":"2023-05-27T20:58:06.767616","SEMIMAJOR_AXIS":"6733.147","MEAN_ELEMENT_THEORY":"SGP4","RCS_SIZE":"LARGE","FILE":"3918755","MEAN_MOTION":"15.71359694","REF_FRAME":"TEME","OBJECT_NAME":"STARLINK-6310","ECCENTRICITY":"0.00018960","CENTER_NAME":"EARTH","TLE_LINE1":"1 56533U 23065AG  23147.87368944  .00004365  00000-0  36707-4 0  9999"}];
